start=new Date('2022-03-30T00:00:00.000Z').valueOf();
sats=[{"LAUNCH_DATE":"2020-10-24","ECCENTRICITY":"0.00016370","INCLINATION":"53.0544","DECAY_DATE":null,"MEAN_MOTION":"15.06386069","PERIOD":"95.593","SITE":"AFETR","RCS_SIZE":"LARGE","CENTER_NAME":"EARTH","CLASSIFICATION_TYPE":"U","RA_OF_ASC_NODE":"299.8071","GP_ID":"200018688","EPHEMERIS_TYPE":"0","COUNTRY_CODE":"US","NORAD_CAT_ID":"46784","APOAPSIS":"548.390","TIME_SYSTEM":"UTC","MEAN_ELEMENT_THEORY":"SGP4","FILE":"3379484","MEAN_ANOMALY":"283.3549","OBJECT_NAME":"STARLINK-1882","OBJECT_TYPE":"PAYLOAD","MEAN_MOTION_DDOT":"0.0000000000000","BSTAR":"-0.00023377000000","EPOCH":"2022-03-29T20:24:46.904832","TLE_LINE1":"1 46784U 20074AX  22088.85054288 -.00003760  00000-0 -23377-3 0  9995","MEAN_MOTION_DOT":"-0.00003760","ARG_OF_PERICENTER":"76.7622","ELEMENT_SET_NO":"999","TLE_LINE2":"2 46784  53.0544 299.8071 0001637  76.7622 283.3549 15.06386069 79313","SEMIMAJOR_AXIS":"6925.391","REF_FRAME":"TEME","REV_AT_EPOCH":"7931","PERIAPSIS":"546.123","OBJECT_ID":"2020-074AX"},{"GP_ID":"200018938","RA_OF_ASC_NODE":"299.5710","SITE":"AFETR","RCS_SIZE":"LARGE","CLASSIFICATION_TYPE":"U","CENTER_NAME":"EARTH","PERIOD":"95.593","MEAN_MOTION":"15.06389439","LAUNCH_DATE":"2020-10-24","DECAY_DATE":null,"INCLINATION":"53.0534","ECCENTRICITY":"0.00014880","OBJECT_NAME":"STARLINK-1883","OBJECT_TYPE":"PAYLOAD","FILE":"3379484","MEAN_ELEMENT_THEORY":"SGP4","MEAN_ANOMALY":"278.4077","TIME_SYSTEM":"UTC","NORAD_CAT_ID":"46785","APOAPSIS":"548.276","EPHEMERIS_TYPE":"0","COUNTRY_CODE":"US","MEAN_MOTION_DOT":"-0.00003311","EPOCH":"2022-03-29T21:39:05.001408","TLE_LINE1":"1 46785U 20074AY  22088.90214122 -.00003311  00000-0 -20355-3 0  9992","BSTAR":"-0.00020355000000","MEAN_MOTION_DDOT":"0.0000000000000","OBJECT_ID":"2020-074AY","REV_AT_EPOCH":"7965","REF_FRAME":"TEME","PERIAPSIS":"546.215","SEMIMAJOR_AXIS":"6925.381","ARG_OF_PERICENTER":"81.7081","TLE_LINE2":"2 46785  53.0534 299.5710 0001488  81.7081 278.4077 15.06389439 79651","ELEMENT_SET_NO":"999"},{"GP_ID":"200019690","RA_OF_ASC_NODE":"279.6553","CENTER_NAME":"EARTH","CLASSIFICATION_TYPE":"U","SITE":"AFETR","RCS_SIZE":"LARGE","PERIOD":"95.593","MEAN_MOTION":"15.06389296","DECAY_DATE":null,"INCLINATION":"53.0545","ECCENTRICITY":"0.00012580","LAUNCH_DATE":"2020-10-24","OBJECT_TYPE":"PAYLOAD","OBJECT_NAME":"STARLINK-1893","MEAN_ANOMALY":"284.9716","FILE":"3379484","MEAN_ELEMENT_THEORY":"SGP4","TIME_SYSTEM":"UTC","NORAD_CAT_ID":"46786","APOAPSIS":"548.118","COUNTRY_CODE":"US","EPHEMERIS_TYPE":"0","MEAN_MOTION_DOT":"0.00000132","TLE_LINE1":"1 46786U 20074AZ  22088.88188192  .00000132  00000-0  27749-4 0  9998","EPOCH":"2022-03-29T21:09:54.597888","BSTAR":"0.00002774900000","MEAN_MOTION_DDOT":"0.0000000000000","OBJECT_ID":"2020-074AZ","PERIAPSIS":"546.375","REV_AT_EPOCH":"7993","REF_FRAME":"TEME","SEMIMAJOR_AXIS":"6925.381","TLE_LINE2":"2 46786  53.0545 279.6553 0001258  75.1412 284.9716 15.06389296 79932","ELEMENT_SET_NO":"999","ARG_OF_PERICENTER":"75.1412"},{"ARG_OF_PERICENTER":"78.5770","TLE_LINE2":"2 46787  53.0546 279.6792 0001388  78.5770 281.5375 15.06396370 79932","ELEMENT_SET_NO":"999","SEMIMAJOR_AXIS":"6925.360","REV_AT_EPOCH":"7993","REF_FRAME":"TEME","PERIAPSIS":"546.263","OBJECT_ID":"2020-074BA","BSTAR":"-0.00010132000000","MEAN_MOTION_DDOT":"0.0000000000000","EPOCH":"2022-03-29T20:59:17.451456","TLE_LINE1":"1 46787U 20074BA  22088.87450754 -.00001790  00000-0 -10132-3 0  9994","MEAN_MOTION_DOT":"-0.00001790","EPHEMERIS_TYPE":"0","COUNTRY_CODE":"US","TIME_SYSTEM":"UTC","APOAPSIS":"548.186","NORAD_CAT_ID":"46787","FILE":"3379484","MEAN_ELEMENT_THEORY":"SGP4","MEAN_ANOMALY":"281.5375","OBJECT_NAME":"STARLINK-1899","OBJECT_TYPE":"PAYLOAD","LAUNCH_DATE":"2020-10-24","DECAY_DATE":null,"ECCENTRICITY":"0.00013880","INCLINATION":"53.0546","PERIOD":"95.592","MEAN_MOTION":"15.06396370","SITE":"AFETR","RCS_SIZE":"LARGE","CLASSIFICATION_TYPE":"U","CENTER_NAME":"EARTH","GP_ID":"200019938","RA_OF_ASC_NODE":"279.6792"},{"CENTER_NAME":"EARTH","CLASSIFICATION_TYPE":"U","RCS_SIZE":"LARGE","SITE":"AFETR","RA_OF_ASC_NODE":"279.7324","GP_ID":"200019188","ECCENTRICITY":"0.00015980","INCLINATION":"53.0540","DECAY_DATE":null,"LAUNCH_DATE":"2020-10-24","MEAN_MOTION":"15.06396720","PERIOD":"95.592","MEAN_ANOMALY":"304.5392","MEAN_ELEMENT_THEORY":"SGP4","FILE":"3379484","OBJECT_TYPE":"PAYLOAD","OBJECT_NAME":"STARLINK-1929","COUNTRY_CODE":"US","EPHEMERIS_TYPE":"0","NORAD_CAT_ID":"46788","APOAPSIS":"548.330","TIME_SYSTEM":"UTC","MEAN_MOTION_DOT":"0.00000261","MEAN_MOTION_DDOT":"0.0000000000000","BSTAR":"0.00003639200000","TLE_LINE1":"1 46788U 20074BB  22088.86713148  .00000261  00000-0  36392-4 0  9990","EPOCH":"2022-03-29T20:48:40.159872","PERIAPSIS":"546.117","REF_FRAME":"TEME","REV_AT_EPOCH":"7993","OBJECT_ID":"2020-074BB","ELEMENT_SET_NO":"999","TLE_LINE2":"2 46788  53.0540 279.7324 0001598  55.5748 304.5392 15.06396720 79936","ARG_OF_PERICENTER":"55.5748","SEMIMAJOR_AXIS":"6925.359"},{"BSTAR":"-0.00012852000000","MEAN_MOTION_DDOT":"0.0000000000000","EPOCH":"2022-03-29T20:59:15.199008","TLE_LINE1":"1 46789U 20074BC  22088.87448147 -.00002195  00000-0 -12852-3 0  9990","MEAN_MOTION_DOT":"-0.00002195","ARG_OF_PERICENTER":"69.1547","TLE_LINE2":"2 46789  53.0559 309.6906 0001568  69.1547 290.9609 15.06388911 79180","ELEMENT_SET_NO":"999","SEMIMAJOR_AXIS":"6925.383","REV_AT_EPOCH":"7918","REF_FRAME":"TEME","PERIAPSIS":"546.162","OBJECT_ID":"2020-074BC","LAUNCH_DATE":"2020-10-24","DECAY_DATE":null,"INCLINATION":"53.0559","ECCENTRICITY":"0.00015680","PERIOD":"95.593","MEAN_MOTION":"15.06388911","SITE":"AFETR","RCS_SIZE":"LARGE","CLASSIFICATION_TYPE":"U","CENTER_NAME":"EARTH","GP_ID":"200019438","RA_OF_ASC_NODE":"309.6906","EPHEMERIS_TYPE":"0","COUNTRY_CODE":"US","TIME_SYSTEM":"UTC","NORAD_CAT_ID":"46789","APOAPSIS":"548.333","FILE":"3379484","MEAN_ELEMENT_THEORY":"SGP4","MEAN_ANOMALY":"290.9609","OBJECT_NAME":"STARLINK-1930","OBJECT_TYPE":"PAYLOAD"},{"OBJECT_NAME":"STARLINK-1931","OBJECT_TYPE":"PAYLOAD","FILE":"3379484","MEAN_ELEMENT_THEORY":"SGP4","MEAN_ANOMALY":"286.4430","TIME_SYSTEM":"UTC","NORAD_CAT_ID":"46790","APOAPSIS":"548.677","EPHEMERIS_TYPE":"0","COUNTRY_CODE":"US","GP_ID":"200020190","RA_OF_ASC_NODE":"309.4881","SITE":"AFETR","RCS_SIZE":"LARGE","CENTER_NAME":"EARTH","CLASSIFICATION_TYPE":"U","PERIOD":"95.594","MEAN_MOTION":"15.06369584","LAUNCH_DATE":"2020-10-24","DECAY_DATE":null,"INCLINATION":"53.0558","ECCENTRICITY":"0.00019780","OBJECT_ID":"2020-074BD","REV_AT_EPOCH":"7951","REF_FRAME":"TEME","PERIAPSIS":"545.937","SEMIMAJOR_AXIS":"6925.442","ARG_OF_PERICENTER":"73.6776","TLE_LINE2":"2 46790  53.0558 309.4881 0001978  73.6776 286.4430 15.06369584 79514","ELEMENT_SET_NO":"999","MEAN_MOTION_DOT":"0.00003463","EPOCH":"2022-03-29T22:04:19.145856","TLE_LINE1":"1 46790U 20074BD  22088.91966604  .00003463  00000-0  25149-3 0  9990","MEAN_MOTION_DDOT":"0.0000000000000","BSTAR":"0.00025149000000"},{"RA_OF_ASC_NODE":"309.7090","GP_ID":"199996596","CENTER_NAME":"EARTH","CLASSIFICATION_TYPE":"U","SITE":"AFETR","RCS_SIZE":"LARGE","MEAN_MOTION":"15.06391621","PERIOD":"95.593","INCLINATION":"53.0530","ECCENTRICITY":"0.00015020","DECAY_DATE":null,"LAUNCH_DATE":"2020-10-24","OBJECT_TYPE":"PAYLOAD","OBJECT_NAME":"STARLINK-1933","MEAN_ANOMALY":"303.3640","MEAN_ELEMENT_THEORY":"SGP4","FILE":"3379425","APOAPSIS":"548.279","NORAD_CAT_ID":"46791","TIME_SYSTEM":"UTC","COUNTRY_CODE":"US","EPHEMERIS_TYPE":"0","MEAN_MOTION_DOT":"-0.00000522","TLE_LINE1":"1 46791U 20074BE  22088.86804935 -.00000522  00000-0 -16157-4 0  9998","EPOCH":"2022-03-29T20:49:59.463840","MEAN_MOTION_DDOT":"0.0000000000000","BSTAR":"-0.00001615700000","OBJECT_ID":"2020-074BE","PERIAPSIS":"546.199","REF_FRAME":"TEME","REV_AT_EPOCH":"7918","SEMIMAJOR_AXIS":"6925.374","ELEMENT_SET_NO":"999","TLE_LINE2":"2 46791  53.0530 309.7090 0001502  56.7493 303.3640 15.06391621 79183","ARG_OF_PERICENTER":"56.7493"},{"OBJECT_ID":"2020-074BF","PERIAPSIS":"546.017","REV_AT_EPOCH":"7965","REF_FRAME":"TEME","SEMIMAJOR_AXIS":"6925.409","TLE_LINE2":"2 46792  53.0534 299.5898 0001814  53.2130 306.9025 15.06380419 79657","ELEMENT_SET_NO":"999","ARG_OF_PERICENTER":"53.2130","MEAN_MOTION_DOT":"-0.00002189","TLE_LINE1":"1 46792U 20074BF  22088.89478577 -.00002189  00000-0 -12814-3 0  9997","EPOCH":"2022-03-29T21:28:29.490528","MEAN_MOTION_DDOT":"0.0000000000000","BSTAR":"-0.00012814000000","OBJECT_TYPE":"PAYLOAD","OBJECT_NAME":"STARLINK-1934","MEAN_ANOMALY":"306.9025","FILE":"3379484","MEAN_ELEMENT_THEORY":"SGP4","TIME_SYSTEM":"UTC","APOAPSIS":"548.530","NORAD_CAT_ID":"46792","COUNTRY_CODE":"US","EPHEMERIS_TYPE":"0","GP_ID":"200018689","RA_OF_ASC_NODE":"299.5898","CLASSIFICATION_TYPE":"U","CENTER_NAME":"EARTH","SITE":"AFETR","RCS_SIZE":"LARGE","PERIOD":"95.593","MEAN_MOTION":"15.06380419","DECAY_DATE":null,"ECCENTRICITY":"0.00018140","INCLINATION":"53.0534","LAUNCH_DATE":"2020-10-24"},{"EPHEMERIS_TYPE":"0","COUNTRY_CODE":"US","TIME_SYSTEM":"UTC","NORAD_CAT_ID":"46793","APOAPSIS":"548.371","FILE":"3379484","MEAN_ELEMENT_THEORY":"SGP4","MEAN_ANOMALY":"286.5169","OBJECT_NAME":"STARLINK-1941","OBJECT_TYPE":"PAYLOAD","LAUNCH_DATE":"2020-10-24","DECAY_DATE":null,"ECCENTRICITY":"0.00016670","INCLINATION":"53.0549","PERIOD":"95.592","MEAN_MOTION":"15.06399129","RCS_SIZE":"LARGE","SITE":"AFETR","CLASSIFICATION_TYPE":"U","CENTER_NAME":"EARTH","GP_ID":"200018939","RA_OF_ASC_NODE":"309.4747","ARG_OF_PERICENTER":"73.6003","TLE_LINE2":"2 46793  53.0549 309.4747 0001667  73.6003 286.5169 15.06399129 79514","ELEMENT_SET_NO":"999","SEMIMAJOR_AXIS":"6925.351","REV_AT_EPOCH":"7951","REF_FRAME":"TEME","PERIAPSIS":"546.062","OBJECT_ID":"2020-074BG","BSTAR":"-0.00005804900000","MEAN_MOTION_DDOT":"0.0000000000000","EPOCH":"2022-03-29T22:09:36.607968","TLE_LINE1":"1 46793U 20074BG  22088.92334037 -.00001146  00000-0 -58049-4 0  9997","MEAN_MOTION_DOT":"-0.00001146"}];
